{"type": "FeatureCollection", "features": [ {"type": "Feature", "properties": {"norad_id": 30133, "name": "FENGYUN 1C DEB", "group": "fengyun-1c-debris", "lat": 27.68291388998536, "lon": -31.779982249691557, "alt_km": 915.8232939034233, "timestamp": "2025-12-02T07:10:09.389536+00:00", "meta": {"OBJECT_NAME": "FENGYUN 1C DEB", "OBJECT_ID": "1999-025SN", "EPOCH": "2025-12-01T10:16:24.481632", "MEAN_MOTION": 14.06579935, "ECCENTRICITY": 0.00854141, "INCLINATION": 98.3242, "RA_OF_ASC_NODE": 143.0135, "ARG_OF_PERICENTER": 292.6232, "MEAN_ANOMALY": 133.6591, "EPHEMERIS_TYPE": 0, "CLASSIFICATION_TYPE": "U", "NORAD_CAT_ID": 30133, "ELEMENT_SET_NO": 999, "REV_AT_EPOCH": 96219, "BSTAR": 0.0016334229, "MEAN_MOTION_DOT": 2.758e-05, "MEAN_MOTION_DDOT": 0}, "tle": {"line1": "1 30133U 99025SN  25335.42806113  .00002758  00000+0  16334-2 0  9998", "line2": "2 30133  98.3242 143.0135 0085414 292.6232 133.6591 14.06579935962199"}}, "geometry": {"type": "Point", "coordinates": [-31.779982249691557, 27.68291388998536]}}, {"type": "Feature", "properties": {"norad_id": 30134, "name": "FENGYUN 1C DEB", "group": "fengyun-1c-debris", "lat": -22.54727314353018, "lon": 171.98300920619536, "alt_km": 840.2699227714738, "timestamp": "2025-12-02T07:10:09.389546+00:00", "meta": {"OBJECT_NAME": "FENGYUN 1C DEB", "OBJECT_ID": "1999-025SP", "EPOCH": "2025-12-01T01:37:38.193024", "MEAN_MOTION": 14.13315328, "ECCENTRICITY": 0.00184402, "INCLINATION": 98.6946, "RA_OF_ASC_NODE": 354.4296, "ARG_OF_PERICENTER": 216.873, "MEAN_ANOMALY": 206.5571, "EPHEMERIS_TYPE": 0, "CLASSIFICATION_TYPE": "U", "NORAD_CAT_ID": 30134, "ELEMENT_SET_NO": 999, "REV_AT_EPOCH": 97081, "BSTAR": 0.00051157229, "MEAN_MOTION_DOT": 9.18e-06, "MEAN_MOTION_DDOT": 0}, "tle": {"line1": "1 30134U 99025SP  25335.06780316  .00000918  00000+0  51157-3 0  9994", "line2": "2 30134  98.6946 354.4296 0018440 216.8730 206.5571 14.13315328970814"}}, "geometry": {"type": "Point", "coordinates": [171.98300920619536, -22.54727314353018]}}, {"type": "Feature", "properties": {"norad_id": 30136, "name": "FENGYUN 1C DEB", "group": "fengyun-1c-debris", "lat": 6.419673316930903, "lon": 50.875256215570545, "alt_km": 886.749645007465, "timestamp": "2025-12-02T07:10:09.389556+00:00", "meta": {"OBJECT_NAME": "FENGYUN 1C DEB", "OBJECT_ID": "1999-025SR", "EPOCH": "2025-11-30T16:37:05.134656", "MEAN_MOTION": 13.95301556, "ECCENTRICITY": 0.01291882, "INCLINATION": 98.5563, "RA_OF_ASC_NODE": 228.4134, "ARG_OF_PERICENTER": 102.7664, "MEAN_ANOMALY": 285.0799, "EPHEMERIS_TYPE": 0, "CLASSIFICATION_TYPE": "U", "NORAD_CAT_ID": 30136, "ELEMENT_SET_NO": 999, "REV_AT_EPOCH": 95923, "BSTAR": 0.00029470461, "MEAN_MOTION_DOT": 3.89e-06, "MEAN_MOTION_DDOT": 0}, "tle": {"line1": "1 30136U 99025SR  25334.69242054  .00000389  00000+0  29470-3 0  9991", "line2": "2 30136  98.5563 228.4134 0129188 102.7664 285.0799 13.95301556959236"}}, "geometry": {"type": "Point", "coordinates": [50.875256215570545, 6.419673316930903]}}, {"type": "Feature", "properties": {"norad_id": 30138, "name": "FENGYUN 1C DEB", "group": "fengyun-1c-debris", "lat": 53.15613466932989, "lon": 17.791377600373238, "alt_km": 826.0457417772241, "timestamp": "2025-12-02T07:10:09.389566+00:00", "meta": {"OBJECT_NAME": "FENGYUN 1C DEB", "OBJECT_ID": "1999-025ST", "EPOCH": "2025-12-01T16:15:39.288384", "MEAN_MOTION": 14.19964834, "ECCENTRICITY": 0.0020259, "INCLINATION": 98.7609, "RA_OF_ASC_NODE": 29.0532, "ARG_OF_PERICENTER": 168.6324, "MEAN_ANOMALY": 312.0963, "EPHEMERIS_TYPE": 0, "CLASSIFICATION_TYPE": "U", "NORAD_CAT_ID": 30138, "ELEMENT_SET_NO": 999, "REV_AT_EPOCH": 97244, "BSTAR": 0.00092912, "MEAN_MOTION_DOT": 1.935e-05, "MEAN_MOTION_DDOT": 0}, "tle": {"line1": "1 30138U 99025ST  25335.67753806  .00001935  00000+0  92912-3 0  9993", "line2": "2 30138  98.7609  29.0532 0020259 168.6324 312.0963 14.19964834972444"}}, "geometry": {"type": "Point", "coordinates": [17.791377600373238, 53.15613466932989]}}, {"type": "Feature", "properties": {"norad_id": 30139, "name": "FENGYUN 1C DEB", "group": "fengyun-1c-debris", "lat": 31.56537736867678, "lon": 5.8984233534899255, "alt_km": 974.2872595801518, "timestamp": "2025-12-02T07:10:09.389576+00:00", "meta": {"OBJECT_NAME": "FENGYUN 1C DEB", "OBJECT_ID": "1999-025SU", "EPOCH": "2025-11-30T13:42:33.077088", "MEAN_MOTION": 14.03581873, "ECCENTRICITY": 0.0131774, "INCLINATION": 98.3658, "RA_OF_ASC_NODE": 179.1214, "ARG_OF_PERICENTER": 324.9204, "MEAN_ANOMALY": 99.2292, "EPHEMERIS_TYPE": 0, "CLASSIFICATION_TYPE": "U", "NORAD_CAT_ID": 30139, "ELEMENT_SET_NO": 999, "REV_AT_EPOCH": 96079, "BSTAR": 0.0011579, "MEAN_MOTION_DOT": 1.922e-05, "MEAN_MOTION_DDOT": 0}, "tle": {"line1": "1 30139U 99025SU  25334.57121617  .00001922  00000+0  11579-2 0  9996", "line2": "2 30139  98.3658 179.1214 0131774 324.9204  99.2292 14.03581873960793"}}, "geometry": {"type": "Point", "coordinates": [5.8984233534899255, 31.56537736867678]}}, {"type": "Feature", "properties": {"norad_id": 30140, "name": "FENGYUN 1C DEB", "group": "fengyun-1c-debris", "lat": -22.24453309044568, "lon": -144.45967904048013, "alt_km": 850.2013450299628, "timestamp": "2025-12-02T07:10:09.389586+00:00", "meta": {"OBJECT_NAME": "FENGYUN 1C DEB", "OBJECT_ID": "1999-025SV", "EPOCH": "2025-11-30T16:03:41.750208", "MEAN_MOTION": 14.20644307, "ECCENTRICITY": 0.0040473, "INCLINATION": 98.8279, "RA_OF_ASC_NODE": 37.5577, "ARG_OF_PERICENTER": 345.5101, "MEAN_ANOMALY": 168.1518, "EPHEMERIS_TYPE": 0, "CLASSIFICATION_TYPE": "U", "NORAD_CAT_ID": 30140, "ELEMENT_SET_NO": 999, "REV_AT_EPOCH": 96972, "BSTAR": 0.001321, "MEAN_MOTION_DOT": 2.824e-05, "MEAN_MOTION_DDOT": 0}, "tle": {"line1": "1 30140U 99025SV  25334.66923322  .00002824  00000+0  13210-2 0  9997", "line2": "2 30140  98.8279  37.5577 0040473 345.5101 168.1518 14.20644307969728"}}, "geometry": {"type": "Point", "coordinates": [-144.45967904048013, -22.24453309044568]}}, {"type": "Feature", "properties": {"norad_id": 30141, "name": "FENGYUN 1C DEB", "group": "fengyun-1c-debris", "lat": -6.753995840112093, "lon": 76.24322273330364, "alt_km": 732.8992280085749, "timestamp": "2025-12-02T07:10:09.389596+00:00", "meta": {"OBJECT_NAME": "FENGYUN 1C DEB", "OBJECT_ID": "1999-025SW", "EPOCH": "2025-12-01T05:29:30.290784", "MEAN_MOTION": 14.51172419, "ECCENTRICITY": 0.0018916, "INCLINATION": 99.0131, "RA_OF_ASC_NODE": 256.1745, "ARG_OF_PERICENTER": 66.4794, "MEAN_ANOMALY": 293.8384, "EPHEMERIS_TYPE": 0, "CLASSIFICATION_TYPE": "U", "NORAD_CAT_ID": 30141, "ELEMENT_SET_NO": 999, "REV_AT_EPOCH": 98077, "BSTAR": 0.0033557, "MEAN_MOTION_DOT": 0.00013325, "MEAN_MOTION_DDOT": 0}, "tle": {"line1": "1 30141U 99025SW  25335.22882281  .00013325  00000+0  33557-2 0  9993", "line2": "2 30141  99.0131 256.1745 0018916  66.4794 293.8384 14.51172419980778"}}, "geometry": {"type": "Point", "coordinates": [76.24322273330364, -6.753995840112093]}}, {"type": "Feature", "properties": {"norad_id": 30142, "name": "FENGYUN 1C DEB", "group": "fengyun-1c-debris", "lat": 43.52372653101302, "lon": -119.30199870910558, "alt_km": 921.6642620562361, "timestamp": "2025-12-02T07:10:09.389606+00:00", "meta": {"OBJECT_NAME": "FENGYUN 1C DEB", "OBJECT_ID": "1999-025SX", "EPOCH": "2025-12-01T11:47:58.814016", "MEAN_MOTION": 14.1038088, "ECCENTRICITY": 0.01007078, "INCLINATION": 99.1291, "RA_OF_ASC_NODE": 51.0944, "ARG_OF_PERICENTER": 340.2715, "MEAN_ANOMALY": 19.4571, "EPHEMERIS_TYPE": 0, "CLASSIFICATION_TYPE": "U", "NORAD_CAT_ID": 30142, "ELEMENT_SET_NO": 999, "REV_AT_EPOCH": 96140, "BSTAR": 0.0017476019, "MEAN_MOTION_DOT": 3.209e-05, "MEAN_MOTION_DDOT": 0}, "tle": {"line1": "1 30142U 99025SX  25335.49165294  .00003209  00000+0  17476-2 0  9993", "line2": "2 30142  99.1291  51.0944 0100707 340.2715  19.4571 14.10380880961403"}}, "geometry": {"type": "Point", "coordinates": [-119.30199870910558, 43.52372653101302]}}, {"type": "Feature", "properties": {"norad_id": 30143, "name": "FENGYUN 1C DEB", "group": "fengyun-1c-debris", "lat": 2.855644460591942, "lon": 159.5699679632331, "alt_km": 832.0181611386733, "timestamp": "2025-12-02T07:10:09.389616+00:00", "meta": {"OBJECT_NAME": "FENGYUN 1C DEB", "OBJECT_ID": "1999-025SY", "EPOCH": "2025-12-01T19:13:29.053344", "MEAN_MOTION": 14.0251498, "ECCENTRICITY": 0.010402, "INCLINATION": 98.7341, "RA_OF_ASC_NODE": 159.5321, "ARG_OF_PERICENTER": 321.3468, "MEAN_ANOMALY": 49.3809, "EPHEMERIS_TYPE": 0, "CLASSIFICATION_TYPE": "U", "NORAD_CAT_ID": 30143, "ELEMENT_SET_NO": 999, "REV_AT_EPOCH": 96066, "BSTAR": 0.0013631, "MEAN_MOTION_DOT": 2.158e-05, "MEAN_MOTION_DDOT": 0}, "tle": {"line1": "1 30143U 99025SY  25335.80103071  .00002158  00000+0  13631-2 0  9995", "line2": "2 30143  98.7341 159.5321 0104020 321.3468  49.3809 14.02514980960669"}}, "geometry": {"type": "Point", "coordinates": [159.5699679632331, 2.855644460591942]}}, {"type": "Feature", "properties": {"norad_id": 30144, "name": "FENGYUN 1C DEB", "group": "fengyun-1c-debris", "lat": 79.50846830881817, "lon": -151.67455163194148, "alt_km": 980.5658290608053, "timestamp": "2025-12-02T07:10:09.389627+00:00", "meta": {"OBJECT_NAME": "FENGYUN 1C DEB", "OBJECT_ID": "1999-025SZ", "EPOCH": "2025-12-01T17:48:46.156032", "MEAN_MOTION": 13.91790693, "ECCENTRICITY": 0.0126101, "INCLINATION": 99.0095, "RA_OF_ASC_NODE": 328.8345, "ARG_OF_PERICENTER": 320.9473, "MEAN_ANOMALY": 226.5278, "EPHEMERIS_TYPE": 0, "CLASSIFICATION_TYPE": "U", "NORAD_CAT_ID": 30144, "ELEMENT_SET_NO": 999, "REV_AT_EPOCH": 95687, "BSTAR": 0.00067102, "MEAN_MOTION_DOT": 8.67e-06, "MEAN_MOTION_DDOT": 0}, "tle": {"line1": "1 30144U 99025SZ  25335.74220088  .00000867  00000+0  67102-3 0  9995", "line2": "2 30144  99.0095 328.8345 0126101 320.9473 226.5278 13.91790693956873"}}, "geometry": {"type": "Point", "coordinates": [-151.67455163194148, 79.50846830881817]}}]}